OBJECT_NAME,OBJECT_ID,EPOCH,MEAN_MOTION,ECCENTRICITY,INCLINATION,RA_OF_ASC_NODE,ARG_OF_PERICENTER,MEAN_ANOMALY,EPHEMERIS_TYPE,CLASSIFICATION_TYPE,NORAD_CAT_ID,ELEMENT_SET_NO,REV_AT_EPOCH,BSTAR,MEAN_MOTION_DOT,MEAN_MOTION_DDOT
ONEWEB-0231,2021-045R,2026-07-20T10:28:47.765280,13.15553503,.00021892,87.8981,252.5734,96.9042,263.2338,0,U,48782,999,24871,-.33762927E-2,-.1258E-4,0
ONEWEB-0234,2021-045S,2026-07-20T20:30:58.449888,13.15547559,.00026293,87.8991,252.4725,81.4276,278.7152,0,U,48783,999,24890,-.26206849E-3,-.86E-6,0
ONEWEB-0238,2021-045T,2026-07-20T20:31:20.394624,13.15548722,.00022798,87.8995,252.4688,87.5046,272.6345,0,U,48784,999,24880,-.23298537E-3,-.75E-6,0
ONEWEB-0240,2021-045U,2026-07-20T21:01:57.225792,13.15549188,.00023714,87.8987,252.4740,99.9778,260.1620,0,U,48785,999,24883,-.15611662E-3,-.46E-6,0
ONEWEB-0246,2021-045V,2026-07-20T09:56:50.941536,13.15548083,.00020166,87.8988,252.5697,99.6276,260.5083,0,U,48786,999,24864,-.15090329E-3,-.44E-6,0
ONEWEB-0210,2021-045W,2026-07-20T16:38:25.915200,13.15547906,.00019949,87.8990,252.5113,121.6633,238.4692,0,U,48787,999,24872,-.89523E-4,-.21E-6,0
ONEWEB-0214,2021-045X,2026-07-20T16:50:58.372800,13.15546504,.00017492,87.8989,252.5069,102.0215,258.1111,0,U,48788,999,24869,-.45284217E-3,-.158E-5,0
ONEWEB-0221,2021-045Y,2026-07-20T20:40:17.866560,13.15547932,.00021701,87.8985,252.4831,101.0621,259.0753,0,U,48789,999,24880,-.38471169E-3,-.132E-5,0
ONEWEB-0213,2021-045Z,2026-07-20T16:45:16.526016,13.15548311,.00021217,87.8990,252.5187,104.7885,255.3481,0,U,48790,999,24884,-.33862911E-3,-.115E-5,0
ONEWEB-0212,2021-045AA,2026-07-20T21:40:45.235776,13.15546798,.00020497,87.8986,252.4722,96.1498,263.9865,0,U,48791,999,24886,.16463968E-3,.75E-6,0
ONEWEB-0227,2021-045AB,2026-07-20T05:13:55.084224,13.15547953,.00020806,87.8987,252.6089,98.9020,261.2346,0,U,48792,999,24872,.43384238E-4,.29E-6,0
ONEWEB-0226,2021-045AC,2026-07-20T05:04:47.429184,13.15548051,.00020092,87.8985,252.6147,104.7281,255.4073,0,U,48793,999,24869,.17463001E-3,.79E-6,0
ONEWEB-0224,2021-045AD,2026-07-20T20:38:00.841344,13.15548425,.00029359,87.8977,252.5178,92.5356,267.6110,0,U,48794,999,24870,-.3917914E-3,-.135E-5,0
ONEWEB-0233,2021-045AE,2026-07-20T09:47:30.034464,13.15550855,.00023025,87.8976,252.6150,101.7328,258.4061,0,U,48795,999,24866,-.21278866E-3,-.67E-6,0
ONEWEB-0190,2021-045AF,2026-07-20T20:26:35.925216,13.15549214,.00023917,87.8984,252.4903,112.4278,247.7106,0,U,48796,999,24879,-.11057942E-3,-.29E-6,0
ONEWEB-0236,2021-045AG,2026-07-20T20:51:42.274656,13.15548381,.00020794,87.8976,252.4944,93.4665,266.6704,0,U,48797,999,24868,-.34775935E-3,-.118E-5,0
ONEWEB-0248,2021-045AH,2026-07-20T21:09:56.733696,13.15548999,.00024444,87.8986,252.4790,103.2474,256.8929,0,U,48798,999,24884,.25894945E-3,.11E-5,0
ONEWEB-0225,2021-045AJ,2026-07-20T21:41:54.501792,13.15548118,.00023129,87.8985,252.4813,110.1012,250.0367,0,U,48799,999,24885,.32188854E-3,.134E-5,0
ONEWEB-0215,2021-045AK,2026-07-20T04:32:49.841664,13.15549452,.00025066,87.8986,252.6079,110.8379,249.3020,0,U,48800,999,24863,-.4033184E-4,-.2E-7,0
ONEWEB-0216,2021-045AL,2026-07-20T21:12:14.503680,13.15548224,.00019245,87.8984,252.4836,96.7119,263.4231,0,U,48801,999,24873,.42592751E-3,.173E-5,0
ONEWEB-0239,2021-045AM,2026-07-20T21:19:05.556864,13.15547837,.00027807,87.8976,252.4861,107.4062,252.7373,0,U,48802,999,24877,.15346301E-3,.71E-6,0
ONEWEB-0249,2021-060A,2026-07-20T19:05:33.886176,13.16591990,.0002171,87.9076,222.1019,94.0819,266.0560,0,U,48967,999,24403,.12162645E-3,.59E-6,0
ONEWEB-0250,2021-060B,2026-07-20T01:27:09.004896,13.25835494,.00030185,87.9079,219.8970,81.1956,278.9522,0,U,48968,999,24457,.16808896E-4,.21E-6,0
ONEWEB-0252,2021-060D,2026-07-20T03:25:06.722688,13.16595817,.00018809,87.9078,222.2239,96.5150,263.6195,0,U,48970,999,24399,.86554634E-4,.46E-6,0
ONEWEB-0253,2021-060E,2026-07-20T01:19:43.188672,13.16595723,.00021702,87.9075,222.2462,90.9399,269.1980,0,U,48971,999,24391,.60681457E-4,.36E-6,0
ONEWEB-0254,2021-060F,2026-07-20T10:40:35.571360,13.16594261,.00023315,87.9082,222.1674,97.2595,262.8801,0,U,48972,999,24396,-.10754962E-3,-.28E-6,0
ONEWEB-0255,2021-060G,2026-07-20T02:28:07.845312,13.16594098,.00021932,87.9076,222.2416,96.6960,263.4421,0,U,48973,999,24399,-.75384385E-4,-.16E-6,0
ONEWEB-0256,2021-060H,2026-07-20T19:30:40.668480,13.16595088,.00019112,87.9072,222.1029,94.2239,265.9111,0,U,48974,999,24405,.29917958E-3,.127E-5,0
ONEWEB-0257,2021-060J,2026-07-20T02:03:03.097728,13.16593904,.00020641,87.9077,222.2359,97.1146,263.0220,0,U,48975,999,24391,-.10967558E-3,-.29E-6,0
ONEWEB-0258,2021-060K,2026-07-20T11:12:28.797408,13.16603482,.0002263,87.9080,222.1725,93.3111,266.8279,0,U,48976,999,24397,-.54116162E-2,-.2056E-4,0
ONEWEB-0259,2021-060L,2026-07-20T01:56:12.688224,13.16594464,.00022633,87.9076,222.2478,93.9063,266.2327,0,U,48977,999,24395,-.20771029E-3,-.67E-6,0
ONEWEB-0260,2021-060M,2026-07-20T01:43:38.574336,13.16593543,.0001679,87.9074,222.2496,94.8413,265.2910,0,U,48978,999,24393,.14467574E-3,.68E-6,0
ONEWEB-0261,2021-060N,2026-07-20T10:07:32.439072,13.16593915,.00021122,87.9073,222.1813,101.9652,258.1716,0,U,48979,999,24403,.15214714E-3,.71E-6,0
ONEWEB-0262,2021-060P,2026-07-20T18:46:12.701280,13.16593617,.0002363,87.9079,222.0966,92.9575,267.1826,0,U,48980,999,24404,-.22640028E-3,-.74E-6,0
ONEWEB-0263,2021-060Q,2026-07-20T19:31:48.474336,13.16594111,.00022648,87.9078,222.1021,100.7251,259.4135,0,U,48981,999,24401,.13515808E-3,.65E-6,0
ONEWEB-0264,2021-060R,2026-07-20T18:35:56.350464,13.16592858,.0001997,87.9074,222.1114,97.9805,262.1553,0,U,48982,999,24401,-.19806701E-3,-.63E-6,0
ONEWEB-0266,2021-060T,2026-07-20T19:06:42.183648,13.16595374,.00020817,87.9076,222.0990,90.4345,269.7025,0,U,48984,999,24400,.74307965E-4,.41E-6,0
ONEWEB-0267,2021-060U,2026-07-20T02:57:46.123200,13.16594437,.00020751,87.9079,222.2297,98.9500,261.1866,0,U,48985,999,24392,.19297622E-3,.87E-6,0
ONEWEB-0268,2021-060V,2026-07-20T07:40:27.294240,13.16593794,.00019353,87.9077,222.1998,92.1078,268.0275,0,U,48986,999,24421,-.12855482E-3,-.36E-6,0
ONEWEB-0269,2021-060W,2026-07-20T01:44:48.555744,13.16594917,.00019214,87.9075,222.2489,88.8442,271.2909,0,U,48987,999,24395,.22270295E-3,.98E-6,0
ONEWEB-0270,2021-060X,2026-07-20T18:34:47.272800,13.16592676,.00023857,87.9078,222.1117,97.7321,262.4081,0,U,48988,999,24408,-.16450005E-3,-.5E-6,0
ONEWEB-0271,2021-060Y,2026-07-20T10:58:49.845504,13.16594406,.00021824,87.9076,222.1635,98.8069,261.3309,0,U,48989,999,24404,-.1204741E-3,-.33E-6,0
ONEWEB-0272,2021-060Z,2026-07-20T18:48:28.355328,13.16595513,.00018551,87.9071,222.1095,98.7696,261.3645,0,U,48990,999,24403,-.19436558E-3,-.61E-6,0
ONEWEB-0273,2021-060AA,2026-07-20T10:13:12.064512,13.16598442,.00020903,87.9071,222.1812,96.3466,263.7903,0,U,48991,999,24396,-.25903763E-2,-.977E-5,0
ONEWEB-0274,2021-060AB,2026-07-20T01:42:30.212064,13.16596227,.0001769,87.9071,222.2512,96.2930,263.8403,0,U,48992,999,24395,.13197855E-3,.63E-6,0
ONEWEB-0275,2021-060AC,2026-07-20T19:40:52.152384,13.16588434,.00011904,87.9079,222.0949,98.1959,261.9307,0,U,48993,999,24398,.63858385E-4,.37E-6,0
ONEWEB-0276,2021-060AD,2026-07-20T18:39:22.385952,13.16593884,.00019172,87.9077,222.1025,94.5834,265.5516,0,U,48994,999,24399,-.16560699E-3,-.5E-6,0
ONEWEB-0277,2021-060AE,2026-07-20T18:57:36.552960,13.16595261,.00021869,87.9071,222.1069,96.6443,263.4937,0,U,48995,999,24398,-.7466005E-5,.1E-6,0
ONEWEB-0278,2021-060AF,2026-07-20T18:43:55.984512,13.16594387,.0002163,87.9077,222.1013,87.6360,272.5019,0,U,48996,999,24411,-.41054026E-4,-.3E-7,0
ONEWEB-0279,2021-060AG,2026-07-20T18:55:19.992576,13.16593777,.00020461,87.9077,222.0979,100.0334,260.1028,0,U,48997,999,24404,-.73631351E-4,-.15E-6,0
ONEWEB-0280,2021-060AH,2026-07-20T10:09:47.846016,13.16594816,.00024111,87.9076,222.1744,92.4625,267.6782,0,U,48998,999,24393,.22878705E-3,.1E-5,0
ONEWEB-0281,2021-060AJ,2026-07-20T19:24:56.628000,13.16592504,.0001924,87.9080,222.0935,92.7910,267.3441,0,U,48999,999,24405,.13944478E-3,.66E-6,0
ONEWEB-0282,2021-060AK,2026-07-20T07:22:13.685376,13.16595229,.0002207,87.9078,222.2005,94.6457,265.4926,0,U,49000,999,24396,-.60781938E-4,-.1E-6,0
ONEWEB-0283,2021-060AL,2026-07-20T10:45:08.699040,13.16593651,.0002062,87.9077,222.1717,98.4019,261.7346,0,U,49001,999,24399,-.6167539E-5,.1E-6,0
ONEWEB-0284,2021-060AM,2026-07-20T19:43:12.751104,13.16594468,.00023714,87.9082,222.0917,89.2463,270.8940,0,U,49002,999,24402,.25629871E-3,.111E-5,0
ONEWEB-0285,2021-075A,2026-07-20T21:49:47.648064,13.12446914,.00017012,87.8977,343.9589,90.9769,269.1554,0,U,49075,999,23963,.60518876E-3,.23E-5,0
ONEWEB-0286,2021-075B,2026-07-20T21:23:58.267104,13.12443100,.0001712,87.8968,343.9759,92.0722,268.0602,0,U,49076,999,23898,-.10659829E-2,-.371E-5,0
ONEWEB-0287,2021-075C,2026-07-20T21:10:31.854432,13.17648365,.00017244,87.9153,359.1629,80.5560,279.5767,0,U,49077,999,23806,.60211608E-4,.36E-6,0
ONEWEB-0288,2021-075D,2026-07-20T20:50:00.900672,13.12440927,.00018714,87.8977,343.9598,89.0933,271.0410,0,U,49078,999,23960,.14672218E-4,.18E-6,0
ONEWEB-0289,2021-075E,2026-07-20T22:06:24.744672,13.17649856,.00022885,87.9156,359.1738,94.5461,265.5932,0,U,49079,999,23864,-.35628996E-4,-.1E-7,0
ONEWEB-0290,2021-075F,2026-07-20T21:27:32.067360,13.17647860,.00023633,87.9162,359.1521,95.3489,264.7912,0,U,49080,999,23805,-.11548731E-3,-.32E-6,0
ONEWEB-0291,2021-075G,2026-07-20T21:05:41.668800,13.17650084,.00020344,87.9153,359.1606,84.7098,275.4266,0,U,49081,999,23804,.15089086E-4,.19E-6,0
ONEWEB-0293,2021-075H,2026-07-20T21:42:06.710976,13.17647687,.00020194,87.9154,359.1579,92.1380,267.9982,0,U,49082,999,23807,.14741988E-3,.7E-6,0
ONEWEB-0294,2021-075J,2026-07-20T20:59:46.122432,13.12442396,.00022041,87.8978,343.9626,96.7192,263.4187,0,U,49083,999,23899,-.10038642E-2,-.348E-5,0
ONEWEB-0295,2021-075K,2026-07-20T21:40:53.841216,13.17650814,.00019015,87.9153,359.1617,85.4574,274.6775,0,U,49084,999,23803,-.15413127E-3,-.47E-6,0
